ICEYE-X40               
1 60549U 24149CK  26193.15130112  .00001297  00000+0  11459-3 0  9990
2 60549  97.6800 269.2441 0003727  13.8478 346.2846 14.98055622103812
ICEYE-X49               
1 62384U 24247H   26193.45044677  .00001352  00000+0  88120-4 0  9993
2 62384  44.9966 222.4534 0001371 239.7873 120.2869 15.13604993 86009
ICEYE-X47               
1 62389U 24247N   26192.43613987  .00001575  00000+0  10071-3 0  9997
2 62389  44.9950 227.4651 0001774 328.9682  31.1091 15.13475729 85850
ICEYE-X42               
1 62698U 25009CT  26193.15793697  .00001263  00000+0  13053-3 0  9991
2 62698  97.7389 271.0229 0001297  90.2039 269.9329 14.91847480 81017
ICEYE-X41               
1 62700U 25009CV  26193.47293270  .00001420  00000+0  12870-3 0  9993
2 62700  97.7063 272.6325 0000492 325.1030  35.0159 14.96903991 81198
ICEYE-X45               
1 62705U 25009DA  26193.19773195  .00003320  00000+0  26595-3 0  9996
2 62705  97.8401 280.0892 0001251  82.9879 277.1487 15.00851359 81431
ICEYE-X44               
1 62707U 25009DC  26192.76507091  .00002183  00000+0  19893-3 0  9999
2 62707  97.7055 271.5026 0002641  79.6019 280.5500 14.96153599103618
ICEYE-X48               
1 63253U 25052AV  26192.70382592  .00001645  00000+0  14386-3 0  9999
2 63253  97.6840  84.5150 0003595 112.6586 247.5017 14.98113064 72348
ICEYE-X50               
1 63255U 25052AX  26193.51932935  .00001272  00000+0  12040-3 0  9994
2 63255  97.6862  84.9252 0003420 107.5000 252.6595 14.95359708 72434
ICEYE-X51               
1 63257U 25052AZ  26193.52539712  .00002536  00000+0  20404-3 0  9990
2 63257  97.7606  88.5748 0002025  68.4954 291.6486 15.00883068 72605
ICEYE-X46               
1 63258U 25052BA  26193.18148192  .00001457  00000+0  13719-3 0  9993
2 63258  97.6863  84.5928 0001694  84.7081 275.4333 14.95359694 72381
ICEYE-X54               
1 64570U 25135AU  26193.46454087  .00001956  00000+0  18543-3 0  9991
2 64570  97.7744 307.6456 0001867 190.1160 170.0023 14.94722660 57672
ICEYE-X52               
1 64572U 25135AW  26193.46042999  .00001267  00000+0  12527-3 0  9999
2 64572  97.7766 307.4347 0001029 198.4751 161.6431 14.93646213 57657
ICEYE-X56               
1 64574U 25135AY  26193.52074216  .00001833  00000+0  16964-3 0  9993
2 64574  97.7762 308.2844 0001185 205.9823 154.1339 14.95751209 57718
ICEYE-X57               
1 64578U 25135BC  26193.46783873  .00002633  00000+0  21194-3 0  9996
2 64578  97.8014 310.0122 0002130  55.0689 305.0734 15.00846558 57814
ICEYE-X55               
1 64581U 25135BF  26193.52748942  .00002077  00000+0  19354-3 0  9992
2 64581  97.7763 308.1184 0001818 248.9210 111.1816 14.95351697 57702
