{"fetched_at":"2026-07-12T17:32:49.193Z","source":"https://celestrak.org/NORAD/elements/gp.php?NAME=ICEYE&FORMAT=JSON","constellation":"iceye","records":[{"OBJECT_NAME":"ICEYE-X40","OBJECT_ID":"2024-149CK","EPOCH":"2026-07-12T03:37:52.416768","CLASSIFICATION_TYPE":"U","MEAN_MOTION":14.98055622,"ECCENTRICITY":0.00037278,"INCLINATION":97.68,"RA_OF_ASC_NODE":269.2441,"ARG_OF_PERICENTER":13.8478,"MEAN_ANOMALY":346.2846,"EPHEMERIS_TYPE":0,"NORAD_CAT_ID":60549,"ELEMENT_SET_NO":999,"REV_AT_EPOCH":10381,"BSTAR":0.00011459305,"MEAN_MOTION_DOT":0.00001297,"MEAN_MOTION_DDOT":0},{"OBJECT_NAME":"ICEYE-X49","OBJECT_ID":"2024-247H","EPOCH":"2026-07-12T10:48:38.600928","CLASSIFICATION_TYPE":"U","MEAN_MOTION":15.13604993,"ECCENTRICITY":0.0001371,"INCLINATION":44.9966,"RA_OF_ASC_NODE":222.4534,"ARG_OF_PERICENTER":239.7873,"MEAN_ANOMALY":120.2869,"EPHEMERIS_TYPE":0,"NORAD_CAT_ID":62384,"ELEMENT_SET_NO":999,"REV_AT_EPOCH":8600,"BSTAR":0.00008812,"MEAN_MOTION_DOT":0.00001352,"MEAN_MOTION_DDOT":0},{"OBJECT_NAME":"ICEYE-X47","OBJECT_ID":"2024-247N","EPOCH":"2026-07-11T10:28:02.484768","CLASSIFICATION_TYPE":"U","MEAN_MOTION":15.13475729,"ECCENTRICITY":0.00017746,"INCLINATION":44.995,"RA_OF_ASC_NODE":227.4651,"ARG_OF_PERICENTER":328.9682,"MEAN_ANOMALY":31.1091,"EPHEMERIS_TYPE":0,"NORAD_CAT_ID":62389,"ELEMENT_SET_NO":999,"REV_AT_EPOCH":8585,"BSTAR":0.00010070501,"MEAN_MOTION_DOT":0.00001575,"MEAN_MOTION_DDOT":0},{"OBJECT_NAME":"ICEYE-X42","OBJECT_ID":"2025-009CT","EPOCH":"2026-07-12T03:47:25.754208","CLASSIFICATION_TYPE":"U","MEAN_MOTION":14.9184748,"ECCENTRICITY":0.00012973,"INCLINATION":97.7389,"RA_OF_ASC_NODE":271.0229,"ARG_OF_PERICENTER":90.2039,"MEAN_ANOMALY":269.9329,"EPHEMERIS_TYPE":0,"NORAD_CAT_ID":62698,"ELEMENT_SET_NO":999,"REV_AT_EPOCH":8101,"BSTAR":0.00013052738,"MEAN_MOTION_DOT":0.00001263,"MEAN_MOTION_DDOT":0},{"OBJECT_NAME":"ICEYE-X41","OBJECT_ID":"2025-009CV","EPOCH":"2026-07-12T11:21:01.385280","CLASSIFICATION_TYPE":"U","MEAN_MOTION":14.96903991,"ECCENTRICITY":0.0000492,"INCLINATION":97.7063,"RA_OF_ASC_NODE":272.6325,"ARG_OF_PERICENTER":325.103,"MEAN_ANOMALY":35.0159,"EPHEMERIS_TYPE":0,"NORAD_CAT_ID":62700,"ELEMENT_SET_NO":999,"REV_AT_EPOCH":8119,"BSTAR":0.0001287,"MEAN_MOTION_DOT":0.0000142,"MEAN_MOTION_DDOT":0},{"OBJECT_NAME":"ICEYE-X45","OBJECT_ID":"2025-009DA","EPOCH":"2026-07-12T04:44:44.040480","CLASSIFICATION_TYPE":"U","MEAN_MOTION":15.00851359,"ECCENTRICITY":0.00012519,"INCLINATION":97.8401,"RA_OF_ASC_NODE":280.0892,"ARG_OF_PERICENTER":82.9879,"MEAN_ANOMALY":277.1487,"EPHEMERIS_TYPE":0,"NORAD_CAT_ID":62705,"ELEMENT_SET_NO":999,"REV_AT_EPOCH":8143,"BSTAR":0.00026594658,"MEAN_MOTION_DOT":0.0000332,"MEAN_MOTION_DDOT":0},{"OBJECT_NAME":"ICEYE-X44","OBJECT_ID":"2025-009DC","EPOCH":"2026-07-11T18:21:42.126624","CLASSIFICATION_TYPE":"U","MEAN_MOTION":14.96153599,"ECCENTRICITY":0.00026413,"INCLINATION":97.7055,"RA_OF_ASC_NODE":271.5026,"ARG_OF_PERICENTER":79.6019,"MEAN_ANOMALY":280.55,"EPHEMERIS_TYPE":0,"NORAD_CAT_ID":62707,"ELEMENT_SET_NO":999,"REV_AT_EPOCH":10361,"BSTAR":0.00019892613,"MEAN_MOTION_DOT":0.00002183,"MEAN_MOTION_DDOT":0},{"OBJECT_NAME":"ICEYE-X48","OBJECT_ID":"2025-052AV","EPOCH":"2026-07-11T16:53:30.559488","CLASSIFICATION_TYPE":"U","MEAN_MOTION":14.98113064,"ECCENTRICITY":0.0003595,"INCLINATION":97.684,"RA_OF_ASC_NODE":84.515,"ARG_OF_PERICENTER":112.6586,"MEAN_ANOMALY":247.5017,"EPHEMERIS_TYPE":0,"NORAD_CAT_ID":63253,"ELEMENT_SET_NO":999,"REV_AT_EPOCH":7234,"BSTAR":0.00014386281,"MEAN_MOTION_DOT":0.00001645,"MEAN_MOTION_DDOT":0},{"OBJECT_NAME":"ICEYE-X50","OBJECT_ID":"2025-052AX","EPOCH":"2026-07-12T12:27:50.055840","CLASSIFICATION_TYPE":"U","MEAN_MOTION":14.95359708,"ECCENTRICITY":0.000342,"INCLINATION":97.6862,"RA_OF_ASC_NODE":84.9252,"ARG_OF_PERICENTER":107.5,"MEAN_ANOMALY":252.6595,"EPHEMERIS_TYPE":0,"NORAD_CAT_ID":63255,"ELEMENT_SET_NO":999,"REV_AT_EPOCH":7243,"BSTAR":0.0001204,"MEAN_MOTION_DOT":0.00001272,"MEAN_MOTION_DDOT":0},{"OBJECT_NAME":"ICEYE-X51","OBJECT_ID":"2025-052AZ","EPOCH":"2026-07-12T12:36:34.311168","CLASSIFICATION_TYPE":"U","MEAN_MOTION":15.00883068,"ECCENTRICITY":0.0002025,"INCLINATION":97.7606,"RA_OF_ASC_NODE":88.5748,"ARG_OF_PERICENTER":68.4954,"MEAN_ANOMALY":291.6486,"EPHEMERIS_TYPE":0,"NORAD_CAT_ID":63257,"ELEMENT_SET_NO":999,"REV_AT_EPOCH":7260,"BSTAR":0.00020404,"MEAN_MOTION_DOT":0.00002536,"MEAN_MOTION_DDOT":0},{"OBJECT_NAME":"ICEYE-X46","OBJECT_ID":"2025-052BA","EPOCH":"2026-07-12T04:21:20.037888","CLASSIFICATION_TYPE":"U","MEAN_MOTION":14.95359694,"ECCENTRICITY":0.0001694,"INCLINATION":97.6863,"RA_OF_ASC_NODE":84.5928,"ARG_OF_PERICENTER":84.7081,"MEAN_ANOMALY":275.4333,"EPHEMERIS_TYPE":0,"NORAD_CAT_ID":63258,"ELEMENT_SET_NO":999,"REV_AT_EPOCH":7238,"BSTAR":0.00013719401,"MEAN_MOTION_DOT":0.00001457,"MEAN_MOTION_DDOT":0},{"OBJECT_NAME":"ICEYE-X54","OBJECT_ID":"2025-135AU","EPOCH":"2026-07-12T11:08:56.331168","CLASSIFICATION_TYPE":"U","MEAN_MOTION":14.9472266,"ECCENTRICITY":0.0001867,"INCLINATION":97.7744,"RA_OF_ASC_NODE":307.6456,"ARG_OF_PERICENTER":190.116,"MEAN_ANOMALY":170.0023,"EPHEMERIS_TYPE":0,"NORAD_CAT_ID":64570,"ELEMENT_SET_NO":999,"REV_AT_EPOCH":5767,"BSTAR":0.00018543,"MEAN_MOTION_DOT":0.00001956,"MEAN_MOTION_DDOT":0},{"OBJECT_NAME":"ICEYE-X52","OBJECT_ID":"2025-135AW","EPOCH":"2026-07-12T11:03:01.151136","CLASSIFICATION_TYPE":"U","MEAN_MOTION":14.93646213,"ECCENTRICITY":0.0001029,"INCLINATION":97.7766,"RA_OF_ASC_NODE":307.4347,"ARG_OF_PERICENTER":198.4751,"MEAN_ANOMALY":161.6431,"EPHEMERIS_TYPE":0,"NORAD_CAT_ID":64572,"ELEMENT_SET_NO":999,"REV_AT_EPOCH":5765,"BSTAR":0.00012527,"MEAN_MOTION_DOT":0.00001267,"MEAN_MOTION_DDOT":0},{"OBJECT_NAME":"ICEYE-X56","OBJECT_ID":"2025-135AY","EPOCH":"2026-07-12T12:29:52.122624","CLASSIFICATION_TYPE":"U","MEAN_MOTION":14.95751209,"ECCENTRICITY":0.0001185,"INCLINATION":97.7762,"RA_OF_ASC_NODE":308.2844,"ARG_OF_PERICENTER":205.9823,"MEAN_ANOMALY":154.1339,"EPHEMERIS_TYPE":0,"NORAD_CAT_ID":64574,"ELEMENT_SET_NO":999,"REV_AT_EPOCH":5771,"BSTAR":0.00016964,"MEAN_MOTION_DOT":0.00001833,"MEAN_MOTION_DDOT":0},{"OBJECT_NAME":"ICEYE-X57","OBJECT_ID":"2025-135BC","EPOCH":"2026-07-12T11:13:41.266272","CLASSIFICATION_TYPE":"U","MEAN_MOTION":15.00846558,"ECCENTRICITY":0.000213,"INCLINATION":97.8014,"RA_OF_ASC_NODE":310.0122,"ARG_OF_PERICENTER":55.0689,"MEAN_ANOMALY":305.0734,"EPHEMERIS_TYPE":0,"NORAD_CAT_ID":64578,"ELEMENT_SET_NO":999,"REV_AT_EPOCH":5781,"BSTAR":0.00021194,"MEAN_MOTION_DOT":0.00002633,"MEAN_MOTION_DDOT":0},{"OBJECT_NAME":"ICEYE-X55","OBJECT_ID":"2025-135BF","EPOCH":"2026-07-12T12:39:35.085888","CLASSIFICATION_TYPE":"U","MEAN_MOTION":14.95351697,"ECCENTRICITY":0.0001818,"INCLINATION":97.7763,"RA_OF_ASC_NODE":308.1184,"ARG_OF_PERICENTER":248.921,"MEAN_ANOMALY":111.1816,"EPHEMERIS_TYPE":0,"NORAD_CAT_ID":64581,"ELEMENT_SET_NO":999,"REV_AT_EPOCH":5770,"BSTAR":0.00019354,"MEAN_MOTION_DOT":0.00002077,"MEAN_MOTION_DDOT":0}]}
